{
  "type": "FeatureCollection",
  "features": [
    {
      "type": "Feature",
      "properties": {
        "norad_id": 66924,
        "name": "CZ-8A R/B",
        "group": "last-30-days",
        "lat": -35.577523372696525,
        "lon": 87.05824196250505,
        "alt_km": 867.4356149934647,
        "timestamp": "2025-12-10T21:43:20.864028+00:00",
        "meta_object_name": "CZ-8A R/B",
        "meta_object_id": "2025-285K",
        "meta_epoch": "2025-12-10T15:14:58.228224",
        "meta_mean_motion": 14.30500545,
        "meta_eccentricity": 0.01193137,
        "meta_inclination": 50.006,
        "meta_ra_of_asc_node": 125.1122,
        "meta_arg_of_pericenter": 99.3237,
        "meta_mean_anomaly": 262.1193,
        "meta_ephemeris_type": 0,
        "meta_classification_type": "U",
        "meta_norad_cat_id": 66924,
        "meta_element_set_no": 999,
        "meta_rev_at_epoch": 62,
        "meta_bstar": 9.8432288e-05,
        "meta_mean_motion_dot": 1.12e-06,
        "meta_mean_motion_ddot": 0,
        "tle_line1": "1 66924U 25285K   25344.63539616  .00000112  00000+0  98432-4 0  9999",
        "tle_line2": "2 66924  50.0060 125.1122 0119313  99.3237 262.1193 14.30500545   624"
      },
      "geometry": {
        "type": "Point",
        "coordinates": [
          87.05824196250505,
          -35.577523372696525
        ]
      }
    },
    {
      "type": "Feature",
      "properties": {
        "norad_id": 66953,
        "name": "HULIANWANG DIGUI-114",
        "group": "last-30-days",
        "lat": 22.28373198060448,
        "lon": 165.38734796468657,
        "alt_km": 999.0050312593303,
        "timestamp": "2025-12-10T21:43:20.864045+00:00",
        "meta_object_name": "HULIANWANG DIGUI-114",
        "meta_object_id": "2025-287A",
        "meta_epoch": "2025-12-10T06:55:20.076384",
        "meta_mean_motion": 13.69073793,
        "meta_eccentricity": 0.00082441,
        "meta_inclination": 86.4956,
        "meta_ra_of_asc_node": 347.0512,
        "meta_arg_of_pericenter": 213.3003,
        "meta_mean_anomaly": 146.7638,
        "meta_ephemeris_type": 0,
        "meta_classification_type": "U",
        "meta_norad_cat_id": 66953,
        "meta_element_set_no": 999,
        "meta_rev_at_epoch": 19,
        "meta_bstar": 9.649594e-06,
        "meta_mean_motion_dot": 2.5e-07,
        "meta_mean_motion_ddot": 0,
        "tle_line1": "1 66953U 25287A   25344.28842681  .00000025  00000+0  96496-5 0  9995",
        "tle_line2": "2 66953  86.4956 347.0512 0008244 213.3003 146.7638 13.69073793   194"
      },
      "geometry": {
        "type": "Point",
        "coordinates": [
          165.38734796468657,
          22.28373198060448
        ]
      }
    },
    {
      "type": "Feature",
      "properties": {
        "norad_id": 66954,
        "name": "HULIANWANG DIGUI-115",
        "group": "last-30-days",
        "lat": 21.616707380180625,
        "lon": 165.43734252479808,
        "alt_km": 998.6617470199981,
        "timestamp": "2025-12-10T21:43:20.864055+00:00",
        "meta_object_name": "HULIANWANG DIGUI-115",
        "meta_object_id": "2025-287B",
        "meta_epoch": "2025-12-10T10:25:40.434528",
        "meta_mean_motion": 13.69168852,
        "meta_eccentricity": 0.00081957,
        "meta_inclination": 86.4972,
        "meta_ra_of_asc_node": 346.9997,
        "meta_arg_of_pericenter": 212.0231,
        "meta_mean_anomaly": 148.0431,
        "meta_ephemeris_type": 0,
        "meta_classification_type": "U",
        "meta_norad_cat_id": 66954,
        "meta_element_set_no": 999,
        "meta_rev_at_epoch": 21,
        "meta_bstar": 1.1007839e-05,
        "meta_mean_motion_dot": 2.6e-07,
        "meta_mean_motion_ddot": 0,
        "tle_line1": "1 66954U 25287B   25344.43449577  .00000026  00000+0  11008-4 0  9996",
        "tle_line2": "2 66954  86.4972 346.9997 0008195 212.0231 148.0431 13.69168852   212"
      },
      "geometry": {
        "type": "Point",
        "coordinates": [
          165.43734252479808,
          21.616707380180625
        ]
      }
    },
    {
      "type": "Feature",
      "properties": {
        "norad_id": 66955,
        "name": "HULIANWANG DIGUI-116",
        "group": "last-30-days",
        "lat": 20.72176945721164,
        "lon": 165.48757315546732,
        "alt_km": 998.1464124847507,
        "timestamp": "2025-12-10T21:43:20.864066+00:00",
        "meta_object_name": "HULIANWANG DIGUI-116",
        "meta_object_id": "2025-287C",
        "meta_epoch": "2025-12-09T09:52:18.926688",
        "meta_mean_motion": 13.69296672,
        "meta_eccentricity": 0.00076324,
        "meta_inclination": 86.4914,
        "meta_ra_of_asc_node": 347.3632,
        "meta_arg_of_pericenter": 209.8722,
        "meta_mean_anomaly": 150.2003,
        "meta_ephemeris_type": 0,
        "meta_classification_type": "U",
        "meta_norad_cat_id": 66955,
        "meta_element_set_no": 999,
        "meta_rev_at_epoch": 7,
        "meta_bstar": 3.470494e-06,
        "meta_mean_motion_dot": 2e-07,
        "meta_mean_motion_ddot": 0,
        "tle_line1": "1 66955U 25287C   25343.41133017  .00000020  00000+0  34705-5 0  9997",
        "tle_line2": "2 66955  86.4914 347.3632 0007632 209.8722 150.2003 13.69296672    70"
      },
      "geometry": {
        "type": "Point",
        "coordinates": [
          165.48757315546732,
          20.72176945721164
        ]
      }
    },
    {
      "type": "Feature",
      "properties": {
        "norad_id": 66956,
        "name": "HULIANWANG DIGUI-117",
        "group": "last-30-days",
        "lat": 19.977054388457606,
        "lon": 165.5520445634222,
        "alt_km": 997.6869341596021,
        "timestamp": "2025-12-10T21:43:20.864078+00:00",
        "meta_object_name": "HULIANWANG DIGUI-117",
        "meta_object_id": "2025-287D",
        "meta_epoch": "2025-12-10T08:40:06.191328",
        "meta_mean_motion": 13.69398761,
        "meta_eccentricity": 0.00070713,
        "meta_inclination": 86.4971,
        "meta_ra_of_asc_node": 347.0263,
        "meta_arg_of_pericenter": 199.7388,
        "meta_mean_anomaly": 160.3499,
        "meta_ephemeris_type": 0,
        "meta_classification_type": "U",
        "meta_norad_cat_id": 66956,
        "meta_element_set_no": 999,
        "meta_rev_at_epoch": 20,
        "meta_bstar": 1.0798013e-05,
        "meta_mean_motion_dot": 2.6e-07,
        "meta_mean_motion_ddot": 0,
        "tle_line1": "1 66956U 25287D   25344.36118277  .00000026  00000+0  10798-4 0  9995",
        "tle_line2": "2 66956  86.4971 347.0263 0007071 199.7388 160.3499 13.69398761   201"
      },
      "geometry": {
        "type": "Point",
        "coordinates": [
          165.5520445634222,
          19.977054388457606
        ]
      }
    },
    {
      "type": "Feature",
      "properties": {
        "norad_id": 66957,
        "name": "HULIANWANG DIGUI-118",
        "group": "last-30-days",
        "lat": 19.212077027341387,
        "lon": 165.60109419146025,
        "alt_km": 997.3518423601854,
        "timestamp": "2025-12-10T21:43:20.864088+00:00",
        "meta_object_name": "HULIANWANG DIGUI-118",
        "meta_object_id": "2025-287E",
        "meta_epoch": "2025-12-10T08:39:56.683872",
        "meta_mean_motion": 13.69509074,
        "meta_eccentricity": 0.00068996,
        "meta_inclination": 86.4942,
        "meta_ra_of_asc_node": 347.0238,
        "meta_arg_of_pericenter": 197.517,
        "meta_mean_anomaly": 162.5753,
        "meta_ephemeris_type": 0,
        "meta_classification_type": "U",
        "meta_norad_cat_id": 66957,
        "meta_element_set_no": 999,
        "meta_rev_at_epoch": 20,
        "meta_bstar": -0.00019874691,
        "meta_mean_motion_dot": -1.56e-06,
        "meta_mean_motion_ddot": 0,
        "tle_line1": "1 66957U 25287E   25344.36107273 -.00000156  00000+0 -19875-3 0  9990",
        "tle_line2": "2 66957  86.4942 347.0238 0006899 197.5170 162.5753 13.69509074   202"
      },
      "geometry": {
        "type": "Point",
        "coordinates": [
          165.60109419146025,
          19.212077027341387
        ]
      }
    },
    {
      "type": "Feature",
      "properties": {
        "norad_id": 66958,
        "name": "CZ-6A R/B",
        "group": "last-30-days",
        "lat": -22.501801542683687,
        "lon": -14.651989704890763,
        "alt_km": 966.6692351321399,
        "timestamp": "2025-12-10T21:43:20.864099+00:00",
        "meta_object_name": "CZ-6A R/B",
        "meta_object_id": "2025-287F",
        "meta_epoch": "2025-12-10T14:56:42.203616",
        "meta_mean_motion": 13.9491917,
        "meta_eccentricity": 0.01071803,
        "meta_inclination": 86.5059,
        "meta_ra_of_asc_node": 346.9056,
        "meta_arg_of_pericenter": 108.4995,
        "meta_mean_anomaly": 252.7862,
        "meta_ephemeris_type": 0,
        "meta_classification_type": "U",
        "meta_norad_cat_id": 66958,
        "meta_element_set_no": 999,
        "meta_rev_at_epoch": 24,
        "meta_bstar": 0.00061149217,
        "meta_mean_motion_dot": 8.8e-06,
        "meta_mean_motion_ddot": 0,
        "tle_line1": "1 66958U 25287F   25344.62271069  .00000880  00000+0  61149-3 0  9998",
        "tle_line2": "2 66958  86.5059 346.9056 0107180 108.4995 252.7862 13.94919170   247"
      },
      "geometry": {
        "type": "Point",
        "coordinates": [
          -14.651989704890763,
          -22.501801542683687
        ]
      }
    }
  ]
}